ELYSIUM STAR 2 & LFF    
1 43760U 18099C   24280.47999017  .00211984  00000+0  42257-2 0  9995
2 43760  97.4988 349.8746 0006071 231.7181 128.3522 15.46062902320299
